satname,norad_id,inclination_deg,eccentricity,mean_motion_rev_per_day,perigee_km,apogee_km,l1,l2
STARLINK-1494,45760,53.0524,0.0005533,15.54973006,398.47952106267167,405.98267640072754,1 45760U 20038AG  25342.11652722  .00045196  00000+0  66579-3 0  9997,2 45760  53.0524 240.3435 0005533 123.1249 237.0293 15.54973006303060
STARLINK-1502,45764,53.0539,0.0002517,15.06411101,545.4344335125443,548.9206368495543,1 45764U 20038AL  25342.79218314  .00005768  00000+0  40568-3 0  9991,2 45764  53.0539 264.6736 0002517  92.0931 268.0346 15.06411101302785
STARLINK-1470,45772,53.0504,0.000708,15.20535143,499.35262403756315,509.0980491061482,1 45772U 20038AU  25342.85325334  .00055309  00000+0  24911-2 0  9997,2 45772  53.0504 233.4313 0007080  62.9573 297.2144 15.20535143303228
STARLINK-1482,45773,53.0528,0.0001423,15.06399519,546.2275548248199,548.198509443966,1 45773U 20038AV  25342.75717374  .00003022  00000+0  22169-3 0  9995,2 45773  53.0528 244.8297 0001423  91.0765 269.0387 15.06399519303059
STARLINK-1496,45780,53.0532,0.0001289,15.06403889,546.3069628463045,548.0923146317718,1 45780U 20038BC  25342.72399131  .00005405  00000+0  38145-3 0  9995,2 45780  53.0532 244.9774 0001289  88.9776 271.1361 15.06403889303030
STARLINK-1497,45781,53.0346,0.0005931,15.65975662,366.4316491213949,374.43680431052417,1 45781U 20038BD  25342.91670139  .00269126  00000+0  25070-2 0  9991,2 45781  53.0346 174.7781 0005931 106.4513 125.0128 15.65975662  5973
STARLINK-1510,45784,53.0238,0.0002703,15.88409928,304.9334673281437,308.54731204500695,1 45784U 20038BG  25342.91670139  .00430241  00000+0  14488-2 0  9993,2 45784  53.0238 145.6887 0002703 269.2594 256.7433 15.88409928  6021
STARLINK-1513,45786,53.0543,0.0001394,15.0639331,546.2666654533941,548.1974583478514,1 45786U 20038BJ  25342.75348902  .00002684  00000+0  19908-3 0  9996,2 45786  53.0543 244.8473 0001394  81.8418 278.2729 15.06393310303050
STARLINK-1522,46027,53.0535,0.0001528,15.0639134,546.1799024029251,548.2962970333983,1 46027U 20055A   25342.80047457  .00000909  00000+0  79922-4 0  9992,2 46027  53.0535 174.6342 0001528  94.5888 265.5276 15.06391340295187
STARLINK-1523,46028,53.0542,0.0001424,15.0639721,546.233938047334,548.2062797519493,1 46028U 20055B   25342.81521775  .00001296  00000+0  10589-3 0  9997,2 46028  53.0542 174.5725 0001424  89.1289 270.9863 15.06397210295207
STARLINK-1526,46029,53.0536,0.0001317,15.06401587,546.2946262516161,548.1187617806199,1 46029U 20055C   25342.74149662  .00002015  00000+0  15414-3 0  9993,2 46029  53.0536 174.8992 0001317  92.3363 267.7777 15.06401587295188
STARLINK-1555,46032,53.0531,0.000156,15.06402521,546.1234782774372,548.2841846168485,1 46032U 20055F   25342.79311633  .00005423  00000+0  38266-3 0  9997,2 46032  53.0531 174.6677 0001560  83.7095 276.4071 15.06402521295195
STARLINK-1556,46033,53.0541,0.0001432,15.06373022,546.3025211027552,548.2859646107081,1 46033U 20055G   25342.77469205 -.00000513  00000+0 -15553-4 0  9997,2 46033  53.0541 174.7509 0001432 115.4675 244.6462 15.06373022295168
STARLINK-1557,46034,53.0549,0.0001404,15.06387042,546.2789481131931,548.2235971401478,1 46034U 20055H   25342.84470389  .00002258  00000+0  17047-3 0  9996,2 46034  53.0549 174.4362 0001404 104.4293 255.6852 15.06387042295177
STARLINK-1558,46035,53.0538,0.0001377,15.06395887,546.2705414873344,548.1777859518224,1 46035U 20055J   25342.85209597  .00004374  00000+0  31237-3 0  9997,2 46035  53.0538 174.4067 0001377  94.8246 265.2900 15.06395887295208
STARLINK-1560,46036,53.0553,0.0001417,15.06385073,546.2759790478121,548.2386357945352,1 46036U 20055K   25342.83733318  .00000078  00000+0  24114-4 0  9993,2 46036  53.0553 174.4740 0001417  94.4168 265.6983 15.06385073295209
STARLINK-1567,46038,53.0535,0.0001362,15.06392163,546.2923415736441,548.1788130637069,1 46038U 20055M   25342.84838632 -.00001836  00000+0 -10442-3 0  9994,2 46038  53.0535 174.4213 0001362  90.1688 269.9457 15.06392163295194
STARLINK-1569,46039,53.0545,0.0001471,15.06393882,546.2115872594632,548.2490303217082,1 46039U 20055N   25342.78942079  .00000074  00000+0  23844-4 0  9991,2 46039  53.0545 174.6871 0001471  98.3946 261.7210 15.06393882295181
STARLINK-1582,46043,53.0537,0.0001349,15.06399819,546.2778830819652,548.1463422725656,1 46043U 20055S   25342.79678675  .00001353  00000+0  10972-3 0  9993,2 46043  53.0537 174.6523 0001349  91.2954 268.8190 15.06399819295187
STARLINK-1591,46045,53.0547,0.000137,15.06386101,546.3053781105227,548.2029352874597,1 46045U 20055U   25342.82259362 -.00001439  00000+0 -77743-4 0  9994,2 46045  53.0547 174.5367 0001370  91.2345 268.8801 15.06386101295171
STARLINK-1524,46047,53.0534,0.0001275,15.06384966,546.3746475501903,548.1406231822084,1 46047U 20055W   25342.77559603  .00002519  00000+0  18803-3 0  9990,2 46047  53.0534 164.7473 0001275  97.2119 262.9015 15.06384966295323
STARLINK-1527,46048,53.0542,0.0001288,15.06395697,546.3327594520342,548.1167326378154,1 46048U 20055X   25342.77190417  .00001072  00000+0  90870-4 0  9993,2 46048  53.0542 164.7631 0001288  76.8107 283.3026 15.06395697295303
STARLINK-1540,46051,53.0544,0.0001147,15.06388723,546.4517790907812,548.0404619786314,1 46051U 20055AA  25342.80508032  .00001072  00000+0  90873-4 0  9990,2 46051  53.0544 164.6150 0001147  76.6853 283.4264 15.06388723295345
STARLINK-1541,46052,53.0544,0.0001335,15.06388296,546.3228904235402,548.1719680661481,1 46052U 20055AB  25342.79033690  .00001678  00000+0  13156-3 0  9992,2 46052  53.0544 164.6786 0001335  90.9837 269.1305 15.06388296295309
STARLINK-1543,46053,53.0541,0.0001478,15.06400081,546.187743204784,548.2348761651265,1 46053U 20055AC  25342.79401928  .00004033  00000+0  28952-3 0  9994,2 46053  53.0541 164.6626 0001478  92.3224 267.7934 15.06400081295336
STARLINK-1548,46054,53.0546,0.0001346,15.06396635,546.2897178937637,548.1540245018896,1 46054U 20055AD  25342.80138997  .00000851  00000+0  76034-4 0  9999,2 46054  53.0546 164.6310 0001346  95.0638 265.0504 15.06396635295338
STARLINK-1554,46055,53.0529,0.0001968,15.06381174,545.9063375662663,548.632177469226,1 46055U 20055AE  25342.78666122  .00005592  00000+0  39420-3 0  9997,2 46055  53.0529 164.6968 0001968 100.2432 259.8779 15.06381174295337
STARLINK-1564,46058,53.0549,0.0001392,15.06394988,546.2629083814763,548.1909296965378,1 46058U 20055AH  25342.79776399  .00001363  00000+0  11038-3 0  9996,2 46058  53.0549 165.1092 0001392  93.5256 266.5892 15.06394988295322
